SITRO-AIS-7 (SHEFFER)
1 57194U 23091AE  23297.59738712  .00005239  00000-0  37763-3 0  9994
2 57194  97.6514 347.1003 0018064 201.9461 158.0994 15.04458575 17884
AVION KALUGA 650
1 57195U 23091AF  23297.57831157  .00003587  00000-0  25470-3 0  9996
2 57195  97.6534 347.3413 0013822 191.9478 168.1422 15.05290809 17891
YARILO 3
1 57198U 23091AJ  23297.58210915  .00010741  00000-0  71574-3 0  9999
2 57198  97.6553 347.5097 0013128 192.2818 167.8091 15.07200509 17906
SITRO-AIS-10 (KATYS)
1 57199U 23091AK  23297.61877375  .00006660  00000-0  46026-3 0  9992
2 57199  97.6527 347.3944 0013243 192.4472 167.6429 15.05998441 17903
SITRO-AIS-9 (BURDAEV)
1 57201U 23091AM  23297.61699781  .00006581  00000-0  45463-3 0  9995
2 57201  97.6523 347.3893 0013203 192.1043 167.9868 15.06017435 17909
UTMN-2 (RS27S)
1 57203U 23091AP  23297.55299466  .00006352  00000-0  44027-3 0  9997
2 57203  97.6530 347.3373 0013813 187.5843 172.5177 15.05901573 17892
SITRO-AIS-12 (FARTUSHNY)
1 57204U 23091AQ  23297.60506676  .00005887  00000-0  40553-3 0  9990
2 57204  97.6533 347.4223 0013244 185.0575 175.0520 15.06167921 17908
ARCCUBE-1 (RS25S)
1 57205U 23091AR  23297.57948065  .00008027  00000-0  54074-3 0  9991
2 57205  97.6479 347.3874 0012363 194.7023 165.3846 15.06889546 17902
AHMAT-1 (RS41S)
1 57206U 23091AS  23297.59102343  .00006695  00000-0  45597-3 0  9994
2 57206  97.6496 347.3888 0012299 192.2072 167.8859 15.06548903 17902
SITRO-AIS-11 (SMIRENNY)
1 57208U 23091AU  23297.60127723  .00005894  00000-0  40538-3 0  9997
2 57208  97.6529 347.4233 0013064 185.1914 174.9180 15.06227503 17909
KUZGTU-1 (RS47S)
1 57217U 23091AV  23297.58370343  .00004811  00000-0  34542-3 0  9998
2 57217  97.6507 347.1303 0018195 198.1533 161.9045 15.04646236 17880
2023-091AW
1 57322U 23091AW  23297.61193186  .00010229  00000-0  70595-3 0  9995
2 57322  97.6507 347.2202 0017157 202.9961 157.0500 15.05859235 15776
2023-091AX
1 57323U 23091AX  23297.56397794  .00008553  00000-0  60068-3 0  9992
2 57323  97.6495 347.1325 0017620 204.2143 155.8257 15.05255849 15765
2023-091AY
1 57324U 23091AY  23297.61477770  .00010314  00000-0  71251-3 0  9996
2 57324  97.6509 347.2194 0017380 202.6687 157.3774 15.05817863 15777
2023-091AZ
1 57325U 23091AZ  23297.57843355  .00015189  00000-0  10131-2 0  9992
2 57325  97.6489 347.2605 0016739 202.7617 157.2870 15.07032508 15776
2023-091BA
1 57326U 23091BA  23297.56509638  .00008422  00000-0  59201-3 0  9999
2 57326  97.6494 347.1305 0017620 204.2215 155.8184 15.05224960 15607
